start=new Date('2021-09-29T00:00:00.000Z').valueOf();
sats=[{"INCLINATION":"53.0552","TLE_LINE1":"1 46027U 20055A   21271.45228698  .00000518  00000-0  53636-4 0  9999","DECAY_DATE":null,"MEAN_ELEMENT_THEORY":"SGP4","TLE_LINE2":"2 46027  53.0552 213.6232 0001757  68.5637 291.5540 15.06406518 64221","PERIAPSIS":"545.977","NORAD_CAT_ID":"46027","ARG_OF_PERICENTER":"68.5637","REF_FRAME":"TEME","RA_OF_ASC_NODE":"213.6232","MEAN_ANOMALY":"291.5540","OBJECT_NAME":"STARLINK-1522","MEAN_MOTION_DDOT":"0.0000000000000","SEMIMAJOR_AXIS":"6925.329","EPHEMERIS_TYPE":"0","ELEMENT_SET_NO":"999","OBJECT_ID":"2020-055A","COUNTRY_CODE":"US","MEAN_MOTION":"15.06406518","SITE":"AFETR","TIME_SYSTEM":"UTC","BSTAR":"0.00005363600000","FILE":"3132662","OBJECT_TYPE":"PAYLOAD","APOAPSIS":"548.410","CENTER_NAME":"EARTH","RCS_SIZE":"LARGE","GP_ID":"185714119","REV_AT_EPOCH":"6422","PERIOD":"95.592","MEAN_MOTION_DOT":"0.00000518","LAUNCH_DATE":"2020-08-07","EPOCH":"2021-09-28T10:51:17.595072","CLASSIFICATION_TYPE":"U","ECCENTRICITY":"0.00017570"},{"ARG_OF_PERICENTER":"66.8832","REF_FRAME":"TEME","RA_OF_ASC_NODE":"213.2577","MEAN_ANOMALY":"293.2327","OBJECT_NAME":"STARLINK-1523","MEAN_MOTION_DDOT":"0.0000000000000","SEMIMAJOR_AXIS":"6925.337","EPHEMERIS_TYPE":"0","INCLINATION":"53.0534","TLE_LINE1":"1 46028U 20055B   21271.53338475  .00001144  00000-0  95670-4 0  9994","DECAY_DATE":null,"MEAN_ELEMENT_THEORY":"SGP4","TLE_LINE2":"2 46028  53.0534 213.2577 0001611  66.8832 293.2327 15.06403686 64255","PERIAPSIS":"546.087","NORAD_CAT_ID":"46028","APOAPSIS":"548.318","CENTER_NAME":"EARTH","RCS_SIZE":"LARGE","GP_ID":"185714369","REV_AT_EPOCH":"6425","MEAN_MOTION_DOT":"0.00001144","PERIOD":"95.592","LAUNCH_DATE":"2020-08-07","CLASSIFICATION_TYPE":"U","EPOCH":"2021-09-28T12:48:04.442400","ECCENTRICITY":"0.00016110","ELEMENT_SET_NO":"999","OBJECT_ID":"2020-055B","COUNTRY_CODE":"US","MEAN_MOTION":"15.06403686","SITE":"AFETR","TIME_SYSTEM":"UTC","BSTAR":"0.00009567000000","FILE":"3132662","OBJECT_TYPE":"PAYLOAD"},{"REV_AT_EPOCH":"6423","MEAN_MOTION_DOT":"0.00001362","PERIOD":"95.592","LAUNCH_DATE":"2020-08-07","EPOCH":"2021-09-28T11:01:55.819776","CLASSIFICATION_TYPE":"U","ECCENTRICITY":"0.00016120","APOAPSIS":"548.344","CENTER_NAME":"EARTH","RCS_SIZE":"LARGE","GP_ID":"185715118","SITE":"AFETR","TIME_SYSTEM":"UTC","BSTAR":"0.00011032000000","FILE":"3132662","OBJECT_TYPE":"PAYLOAD","ELEMENT_SET_NO":"999","OBJECT_ID":"2020-055C","MEAN_MOTION":"15.06395427","COUNTRY_CODE":"US","MEAN_ANOMALY":"284.1598","OBJECT_NAME":"STARLINK-1526","MEAN_MOTION_DDOT":"0.0000000000000","SEMIMAJOR_AXIS":"6925.363","EPHEMERIS_TYPE":"0","ARG_OF_PERICENTER":"75.9570","REF_FRAME":"TEME","RA_OF_ASC_NODE":"213.5895","PERIAPSIS":"546.111","NORAD_CAT_ID":"46029","INCLINATION":"53.0538","TLE_LINE1":"1 46029U 20055C   21271.45967384  .00001362  00000-0  11032-3 0  9994","DECAY_DATE":null,"MEAN_ELEMENT_THEORY":"SGP4","TLE_LINE2":"2 46029  53.0538 213.5895 0001612  75.9570 284.1598 15.06395427 64237"},{"SITE":"AFETR","TIME_SYSTEM":"UTC","FILE":"3132662","BSTAR":"0.00007538400000","OBJECT_TYPE":"PAYLOAD","OBJECT_ID":"2020-055D","ELEMENT_SET_NO":"999","MEAN_MOTION":"15.06397199","COUNTRY_CODE":"US","REV_AT_EPOCH":"6420","MEAN_MOTION_DOT":"0.00000841","PERIOD":"95.592","LAUNCH_DATE":"2020-08-07","EPOCH":"2021-09-28T13:04:00.167232","CLASSIFICATION_TYPE":"U","ECCENTRICITY":"0.00016380","APOAPSIS":"548.357","CENTER_NAME":"EARTH","RCS_SIZE":"LARGE","GP_ID":"185714870","PERIAPSIS":"546.088","NORAD_CAT_ID":"46030","INCLINATION":"53.0531","TLE_LINE1":"1 46030U 20055D   21271.54444638  .00000841  00000-0  75384-4 0  9990","DECAY_DATE":null,"MEAN_ELEMENT_THEORY":"SGP4","TLE_LINE2":"2 46030  53.0531 213.2088 0001638  67.8307 292.2856 15.06397199 64201","MEAN_ANOMALY":"292.2856","OBJECT_NAME":"STARLINK-1534","MEAN_MOTION_DDOT":"0.0000000000000","SEMIMAJOR_AXIS":"6925.357","EPHEMERIS_TYPE":"0","ARG_OF_PERICENTER":"67.8307","RA_OF_ASC_NODE":"213.2088","REF_FRAME":"TEME"},{"REF_FRAME":"TEME","RA_OF_ASC_NODE":"213.1889","ARG_OF_PERICENTER":"72.8387","EPHEMERIS_TYPE":"0","OBJECT_NAME":"STARLINK-1544","MEAN_MOTION_DDOT":"0.0000000000000","SEMIMAJOR_AXIS":"6925.394","MEAN_ANOMALY":"287.2753","MEAN_ELEMENT_THEORY":"SGP4","TLE_LINE2":"2 46031  53.0539 213.1889 0001381  72.8387 287.2753 15.06385239 63736","TLE_LINE1":"1 46031U 20055E   21271.54814739  .00000748  00000-0  69112-4 0  9992","DECAY_DATE":null,"INCLINATION":"53.0539","NORAD_CAT_ID":"46031","PERIAPSIS":"546.302","RCS_SIZE":"LARGE","GP_ID":"185723779","CENTER_NAME":"EARTH","APOAPSIS":"548.215","ECCENTRICITY":"0.00013810","LAUNCH_DATE":"2020-08-07","CLASSIFICATION_TYPE":"U","EPOCH":"2021-09-28T13:09:19.934496","REV_AT_EPOCH":"6373","PERIOD":"95.593","MEAN_MOTION_DOT":"0.00000748","COUNTRY_CODE":"US","MEAN_MOTION":"15.06385239","OBJECT_ID":"2020-055E","ELEMENT_SET_NO":"999","OBJECT_TYPE":"PAYLOAD","TIME_SYSTEM":"UTC","BSTAR":"0.00006911200000","FILE":"3132941","SITE":"AFETR"},{"INCLINATION":"53.0521","TLE_LINE1":"1 46032U 20055F   21271.44492777  .00000985  00000-0  85046-4 0  9993","DECAY_DATE":null,"MEAN_ELEMENT_THEORY":"SGP4","TLE_LINE2":"2 46032  53.0521 213.6542 0001549  72.7262 287.3897 15.06393741 64239","PERIAPSIS":"546.160","NORAD_CAT_ID":"46032","ARG_OF_PERICENTER":"72.7262","REF_FRAME":"TEME","RA_OF_ASC_NODE":"213.6542","MEAN_ANOMALY":"287.3897","OBJECT_NAME":"STARLINK-1555","MEAN_MOTION_DDOT":"0.0000000000000","SEMIMAJOR_AXIS":"6925.368","EPHEMERIS_TYPE":"0","ELEMENT_SET_NO":"999","OBJECT_ID":"2020-055F","MEAN_MOTION":"15.06393741","COUNTRY_CODE":"US","SITE":"AFETR","TIME_SYSTEM":"UTC","BSTAR":"0.00008504600000","FILE":"3132662","OBJECT_TYPE":"PAYLOAD","APOAPSIS":"548.305","CENTER_NAME":"EARTH","RCS_SIZE":"LARGE","GP_ID":"185713869","REV_AT_EPOCH":"6423","PERIOD":"95.593","MEAN_MOTION_DOT":"0.00000985","LAUNCH_DATE":"2020-08-07","CLASSIFICATION_TYPE":"U","EPOCH":"2021-09-28T10:40:41.759328","ECCENTRICITY":"0.00015490"},{"ELEMENT_SET_NO":"999","OBJECT_ID":"2020-055G","COUNTRY_CODE":"US","MEAN_MOTION":"15.06405485","OBJECT_TYPE":"PAYLOAD","SITE":"AFETR","FILE":"3132662","BSTAR":"0.00010661000000","TIME_SYSTEM":"UTC","CENTER_NAME":"EARTH","GP_ID":"185714618","RCS_SIZE":"LARGE","APOAPSIS":"548.375","EPOCH":"2021-09-28T13:25:13.591776","CLASSIFICATION_TYPE":"U","LAUNCH_DATE":"2020-08-07","ECCENTRICITY":"0.00017010","MEAN_MOTION_DOT":"0.00001307","PERIOD":"95.592","REV_AT_EPOCH":"6422","DECAY_DATE":null,"TLE_LINE1":"1 46033U 20055G   21271.55918509  .00001307  00000-0  10661-3 0  9991","TLE_LINE2":"2 46033  53.0535 213.1365 0001701  78.0157 282.1023 15.06405485 64227","MEAN_ELEMENT_THEORY":"SGP4","INCLINATION":"53.0535","NORAD_CAT_ID":"46033","PERIAPSIS":"546.019","ARG_OF_PERICENTER":"78.0157","RA_OF_ASC_NODE":"213.1365","REF_FRAME":"TEME","SEMIMAJOR_AXIS":"6925.332","MEAN_MOTION_DDOT":"0.0000000000000","OBJECT_NAME":"STARLINK-1556","EPHEMERIS_TYPE":"0","MEAN_ANOMALY":"282.1023"},{"TIME_SYSTEM":"UTC","FILE":"3132662","BSTAR":"0.00000718380000","SITE":"AFETR","OBJECT_TYPE":"PAYLOAD","COUNTRY_CODE":"US","MEAN_MOTION":"15.06402600","ELEMENT_SET_NO":"999","OBJECT_ID":"2020-055H","REV_AT_EPOCH":"6421","PERIOD":"95.592","MEAN_MOTION_DOT":"-0.00000175","ECCENTRICITY":"0.00016500","LAUNCH_DATE":"2020-08-07","EPOCH":"2021-09-28T11:54:59.178528","CLASSIFICATION_TYPE":"U","APOAPSIS":"548.348","RCS_SIZE":"LARGE","GP_ID":"185715371","CENTER_NAME":"EARTH","PERIAPSIS":"546.063","NORAD_CAT_ID":"46034","INCLINATION":"53.0544","MEAN_ELEMENT_THEORY":"SGP4","TLE_LINE2":"2 46034  53.0544 213.4273 0001650  86.3893 273.7285 15.06402600 64212","TLE_LINE1":"1 46034U 20055H   21271.49651827 -.00000175  00000-0  71838-5 0  9990","DECAY_DATE":null,"MEAN_ANOMALY":"273.7285","EPHEMERIS_TYPE":"0","MEAN_MOTION_DDOT":"0.0000000000000","OBJECT_NAME":"STARLINK-1557","SEMIMAJOR_AXIS":"6925.341","RA_OF_ASC_NODE":"213.4273","REF_FRAME":"TEME","ARG_OF_PERICENTER":"86.3893"},{"SITE":"AFETR","TIME_SYSTEM":"UTC","FILE":"3132662","BSTAR":"0.00023114000000","OBJECT_TYPE":"PAYLOAD","OBJECT_ID":"2020-055J","ELEMENT_SET_NO":"999","MEAN_MOTION":"15.06401312","COUNTRY_CODE":"US","REV_AT_EPOCH":"6424","MEAN_MOTION_DOT":"0.00003163","PERIOD":"95.592","LAUNCH_DATE":"2020-08-07","EPOCH":"2021-09-28T12:05:36.011328","CLASSIFICATION_TYPE":"U","ECCENTRICITY":"0.00015660","APOAPSIS":"548.294","CENTER_NAME":"EARTH","RCS_SIZE":"LARGE","GP_ID":"185714120","PERIAPSIS":"546.125","NORAD_CAT_ID":"46035","INCLINATION":"53.0534","TLE_LINE1":"1 46035U 20055J   21271.50388902  .00003163  00000-0  23114-3 0  9995","DECAY_DATE":null,"MEAN_ELEMENT_THEORY":"SGP4","TLE_LINE2":"2 46035  53.0534 213.3895 0001566  53.2310 306.8822 15.06401312 64241","MEAN_ANOMALY":"306.8822","MEAN_MOTION_DDOT":"0.0000000000000","OBJECT_NAME":"STARLINK-1558","SEMIMAJOR_AXIS":"6925.345","EPHEMERIS_TYPE":"0","ARG_OF_PERICENTER":"53.2310","REF_FRAME":"TEME","RA_OF_ASC_NODE":"213.3895"},{"CLASSIFICATION_TYPE":"U","EPOCH":"2021-09-28T13:19:55.267392","LAUNCH_DATE":"2020-08-07","ECCENTRICITY":"0.00017170","MEAN_MOTION_DOT":"0.00000217","PERIOD":"95.592","REV_AT_EPOCH":"6425","CENTER_NAME":"EARTH","GP_ID":"185714370","RCS_SIZE":"LARGE","APOAPSIS":"548.391","OBJECT_TYPE":"PAYLOAD","SITE":"AFETR","FILE":"3132662","BSTAR":"0.00003347800000","TIME_SYSTEM":"UTC","ELEMENT_SET_NO":"999","OBJECT_ID":"2020-055K","MEAN_MOTION":"15.06403759","COUNTRY_CODE":"US","SEMIMAJOR_AXIS":"6925.337","OBJECT_NAME":"STARLINK-1560","MEAN_MOTION_DDOT":"0.0000000000000","EPHEMERIS_TYPE":"0","MEAN_ANOMALY":"290.5688","ARG_OF_PERICENTER":"69.5486","RA_OF_ASC_NODE":"213.1574","REF_FRAME":"TEME","NORAD_CAT_ID":"46036","PERIAPSIS":"546.013","DECAY_DATE":null,"TLE_LINE1":"1 46036U 20055K   21271.55550078  .00000217  00000-0  33478-4 0  9998","TLE_LINE2":"2 46036  53.0531 213.1574 0001717  69.5486 290.5688 15.06403759 64250","MEAN_ELEMENT_THEORY":"SGP4","INCLINATION":"53.0531"}];
